[{"OBJECT_NAME":"STARLINK-36612","OBJECT_ID":"2026-016V","EPOCH":"2026-03-09T19:03:31.453056","MEAN_MOTION":15.7522704,"ECCENTRICITY":0.00011216,"INCLINATION":97.2837,"RA_OF_ASC_NODE":129.3465,"ARG_OF_PERICENTER":97.1011,"MEAN_ANOMALY":263.0381,"EPHEMERIS_TYPE":0,"CLASSIFICATION_TYPE":"U","NORAD_CAT_ID":67580,"ELEMENT_SET_NO":999,"REV_AT_EPOCH":682,"BSTAR":0.0022788807,"MEAN_MOTION_DOT":0.0035487,"MEAN_MOTION_DDOT":0},{"OBJECT_NAME":"CZ-2D DEB","OBJECT_ID":"2005-024L","EPOCH":"2026-03-06T07:38:56.656320","MEAN_MOTION":15.78698644,"ECCENTRICITY":0.00065736,"INCLINATION":97.1694,"RA_OF_ASC_NODE":99.2993,"ARG_OF_PERICENTER":133.8674,"MEAN_ANOMALY":226.3138,"EPHEMERIS_TYPE":0,"CLASSIFICATION_TYPE":"U","NORAD_CAT_ID":35272,"ELEMENT_SET_NO":999,"REV_AT_EPOCH":12318,"BSTAR":0.00064046997,"MEAN_MOTION_DOT":0.00112943,"MEAN_MOTION_DDOT":0}]
